NORAD_CAT_ID,OBJECT_NAME,OBJECT_TYPE,EPOCH,MEAN_MOTION,ECCENTRICITY,INCLINATION,RA_OF_ASC_NODE,ARG_OF_PERICENTER,MEAN_ANOMALY,BSTAR,MEAN_MOTION_DOT,MEAN_MOTION_DDOT,TLE_LINE0,TLE_LINE1,TLE_LINE2,SEMIMAJOR_AXIS,PERIOD,APOGEE,PERIGEE,DECAYED
51897.0,STARLINK-3598,PAYLOAD,2022-08-24 16:00:00,15.08856962,0.0001742,53.2184,43.7199,77.5469,335.3590000000001,-0.0017655,-0.00028289,0.0,0 STARLINK-3598,1 51897U 22022AX  22236.66667824 -.00028289  00000-0 -17655-2 0  9995,2 51897  53.2184  43.7199 0001742  77.5469 335.3590 15.08856962 28042,6917.829000000002,95.436,540.899,538.488,0.0
51897.0,STARLINK-3598,PAYLOAD,2022-08-24 22:00:00,15.08824574,0.0001744,53.2184,42.5983,72.6404,258.9739,0.00282,0.00044859,0.0,0 STARLINK-3598,1 51897U 22022AX  22236.91667824  .00044859  00000-0  28200-2 0  9990,2 51897  53.2184  42.5983 0001744  72.6404 258.9739 15.08824574  1306,6917.928000000001,95.439,540.999,538.586,0.0
51897.0,STARLINK-3598,PAYLOAD,2022-08-25 06:00:02,15.08835186,0.000166,53.2185,41.1001,79.2357,264.0422,0.0013264,0.00020882,0.0,0 STARLINK-3598,1 51897U 22022AX  22237.25002315  .00020882  00000-0  13264-2 0  9990,2 51897  53.2185  41.1001 0001660  79.2357 264.0422 15.08835186 28127,6917.895,95.438,540.908,538.612,0.0
51897.0,STARLINK-3598,PAYLOAD,2022-08-25 14:00:01,15.0883716,0.0001610999999999,53.2187,39.6043,78.2774,276.5066,-0.0016334,-0.00026188,0.0,0 STARLINK-3598,1 51897U 22022AX  22237.58334491 -.00026188  00000-0 -16334-2 0  9997,2 51897  53.2187  39.6043 0001611  78.2774 276.5066 15.08837160 28176,6917.889,95.438,540.869,538.64,0.0
51897.0,STARLINK-3598,PAYLOAD,2022-08-25 22:00:00,15.08805482,0.0001636,53.2187,38.1091,70.3153,296.0534,0.0026708,0.00042434,0.0,0 STARLINK-3598,1 51897U 22022AX  22237.91667824  .00042434  00000-0  26708-2 0  9999,2 51897  53.2187  38.1091 0001636  70.3153 296.0534 15.08805482  1309,6917.986,95.44,540.9830000000002,538.719,0.0
51897.0,STARLINK-3598,PAYLOAD,2022-08-26 06:00:00,15.08811104,0.0001554,53.219,36.611,78.1359,299.8116,0.0018303,0.00028938,0.0,0 STARLINK-3598,1 51897U 22022AX  22238.25001157  .00028938  00000-0  18303-2 0  9993,2 51897  53.2190  36.6110 0001554  78.1359 299.8116 15.08811104 28282,6917.969,95.439,540.909,538.759,0.0
51897.0,STARLINK-3598,PAYLOAD,2022-08-26 14:00:01,15.0885042,0.0001636,53.2193,35.1152,76.7866,312.7937,-0.0017542,-0.00028106,0.0,0 STARLINK-3598,1 51897U 22022AX  22238.58335648 -.00028106  00000-0 -17542-2 0  9997,2 51897  53.2193  35.1152 0001636  76.7866 312.7937 15.08850420  1307,6917.849,95.437,540.845,538.582,0.0
51897.0,STARLINK-3598,PAYLOAD,2022-08-26 22:00:00,15.08820515,0.0001647,53.2193,33.62,69.5265,331.5881,0.002421,0.00038432,0.0,0 STARLINK-3598,1 51897U 22022AX  22238.91667824  .00038432  00000-0  24210-2 0  9999,2 51897  53.2193  33.6200 0001647  69.5265 331.5881 15.08820515  1308,6917.94,95.439,540.944,538.6659999999998,0.0
51897.0,STARLINK-3598,PAYLOAD,2022-08-27 14:00:01,15.08862845,0.0001634,53.2199,30.6264,76.3929,347.9037,-0.0018643,-0.00029854,0.0,0 STARLINK-3598,1 51897U 22022AX  22239.58334491 -.00029854  00000-0 -18643-2 0  9997,2 51897  53.2199  30.6264 0001634  76.3929 347.9037 15.08862845  1306,6917.811,95.436,540.806,538.545,0.0
51897.0,STARLINK-3598,PAYLOAD,2022-08-27 22:00:00,15.08839052,0.0001623,53.2198,29.1309,69.3699,6.5412,0.002118,0.0003358,0.0,0 STARLINK-3598,1 51897U 22022AX  22239.91667824  .00033580  00000-0  21180-2 0  9992,2 51897  53.2198  29.1309 0001623  69.3699   6.5412 15.08839052  1301,6917.8830000000025,95.438,540.871,538.626,0.0
51897.0,STARLINK-3598,PAYLOAD,2022-08-28 06:00:00,15.08817246,0.0001598,53.2201,27.63300000000001,80.0391,7.4291,0.0026458,0.00042045,0.0,0 STARLINK-3598,1 51897U 22022AX  22240.25001157  .00042045  00000-0  26458-2 0  9991,2 51897  53.2201  27.6330 0001598  80.0391   7.4291 15.08817246 28588,6917.95,95.439,540.92,538.7090000000002,0.0
51897.0,STARLINK-3598,PAYLOAD,2022-08-28 14:00:01,15.08861038,0.0001675999999999,53.2202,26.1377,77.6731,21.3788,-0.0016746999999999,-0.00026857,0.0,0 STARLINK-3598,1 51897U 22022AX  22240.58334491 -.00026857  00000-0 -16747-2 0  9992,2 51897  53.2202  26.1377 0001676  77.6731  21.3788 15.08861038  1306,6917.816,95.436,540.841,538.5219999999998,0.0
51897.0,STARLINK-3598,PAYLOAD,2022-08-28 22:00:00,15.088408800000002,0.0001659,53.22,24.6421,71.5729,39.087,0.0016561,0.00026168,0.0,0 STARLINK-3598,1 51897U 22022AX  22240.91667824  .00026168  00000-0  16561-2 0  9995,2 51897  53.2200  24.6421 0001659  71.5729  39.0870 15.08840880  1308,6917.878000000002,95.437,540.89,538.595,0.0
51897.0,STARLINK-3598,PAYLOAD,2022-08-29 14:00:01,15.08868252,0.0001545,53.2203,21.6491,78.2045,55.6709,-0.0039705999999999,-0.00062976,0.0,0 STARLINK-3598,1 51897U 22022AX  22241.58334491 -.00062976  00000-0 -39706-2 0  9995,2 51897  53.2203  21.6491 0001545  78.2045  55.6709 15.08868252  1302,6917.794,95.436,540.7280000000002,538.59,0.0
51897.0,STARLINK-3598,PAYLOAD,2022-08-29 16:00:00,15.08846473,0.0001558,53.2202,21.2754,75.2586,151.5281,-0.0013709,-0.00022043,0.0,0 STARLINK-3598,1 51897U 22022AX  22241.66667824 -.00022043  00000-0 -13709-2 0  9999,2 51897  53.2202  21.2754 0001558  75.2586 151.5281 15.08846473 28794,6917.861,95.437,540.803,538.648,0.0
51897.0,STARLINK-3598,PAYLOAD,2022-08-29 22:00:00,15.08833933,0.0001501999999999,53.2199,20.1533,71.6933,73.7889,0.0011762,0.00018478,0.0,0 STARLINK-3598,1 51897U 22022AX  22241.91667824  .00018478  00000-0  11762-2 0  9999,2 51897  53.2199  20.1533 0001502  71.6933  73.7889 15.08833933  1301,6917.899,95.438,540.803,538.725,0.0
51897.0,STARLINK-3598,PAYLOAD,2022-08-30 06:00:00,15.08821397,0.0001406999999999,53.2199,18.6555,81.9191,75.1619,0.0027825,0.00044251,0.0,0 STARLINK-3598,1 51897U 22022AX  22242.25001157  .00044251  00000-0  27825-2 0  9993,2 51897  53.2199  18.6555 0001407  81.9191  75.1619 15.08821397 28881,6917.937,95.439,540.776,538.8290000000002,0.0
51897.0,STARLINK-3598,PAYLOAD,2022-08-30 14:00:01,15.08862207,0.0001457,53.22,17.1606,78.2388,90.427,-0.0026525,-0.0004228,0.0,0 STARLINK-3598,1 51897U 22022AX  22242.58334491 -.00042280  00000-0 -26525-2 0  9997,2 51897  53.2200  17.1606 0001457  78.2388  90.4270 15.08862207  1303,6917.813,95.436,540.685,538.67,0.0
51897.0,STARLINK-3598,PAYLOAD,2022-08-30 22:00:00,15.08835841,0.0001383,53.2196,15.6647,71.6002,108.6759,-0.00070861,-0.00011546,0.0,0 STARLINK-3598,1 51897U 22022AX  22242.91667824 -.00011546  00000-0 -70861-3 0  9997,2 51897  53.2196  15.6647 0001383  71.6002 108.6759 15.08835841  1301,6917.893,95.438,540.715,538.8009999999998,0.0
51897.0,STARLINK-3598,PAYLOAD,2022-08-31 14:00:01,15.08843659,0.0001361,53.2196,12.6722,75.9421,127.5036,-0.0010677999999999,-0.00017243,0.0,0 STARLINK-3598,1 51897U 22022AX  22243.58334491 -.00017243  00000-0 -10678-2 0  9991,2 51897  53.2196  12.6722 0001361  75.9421 127.5036 15.08843659  1304,6917.869000000002,95.437,540.6759999999998,538.793,0.0
51897.0,STARLINK-3598,PAYLOAD,2022-08-31 22:00:00,15.08845719,0.0001343,53.2194,11.1761,70.6883,144.3458,-0.00015642,-2.777e-05,0.0,0 STARLINK-3598,1 51897U 22022AX  22243.91667824 -.00002777  00000-0 -15642-3 0  9990,2 51897  53.2194  11.1761 0001343  70.6883 144.3458 15.08845719 29138,6917.863,95.437,540.6569999999998,538.799,0.0
51897.0,STARLINK-3598,PAYLOAD,2022-09-01 14:00:01,15.0886924,0.0001424,53.2194,8.1835,73.6978,164.6035,-0.0027418,-0.00043694,0.0,0 STARLINK-3598,1 51897U 22022AX  22244.58335648 -.00043694  00000-0 -27418-2 0  9996,2 51897  53.2194   8.1835 0001424  73.6978 164.6035 15.08869240  1304,6917.791,95.436,540.641,538.6709999999998,0.0
51897.0,STARLINK-3598,PAYLOAD,2022-09-01 22:00:00,15.08847176,0.0001462,53.2194,6.6872,69.8971,179.9521,-0.0013132,-0.00021131,0.0,0 STARLINK-3598,1 51897U 22022AX  22244.91667824 -.00021131  00000-0 -13132-2 0  9997,2 51897  53.2194   6.6872 0001462  69.8971 179.9521 15.08847176  1303,6917.858,95.437,540.735,538.712,0.0
51897.0,STARLINK-3598,PAYLOAD,2022-09-02 08:00:01,15.08831159,0.0001465,53.2197,4.8154,79.8895,274.4476,0.0016717,0.00026411,0.0,0 STARLINK-3598,1 51897U 22022AX  22245.33334491  .00026411  00000-0  16717-2 0  9991,2 51897  53.2197   4.8154 0001465  79.8895 274.4476 15.08831159 29346,6917.906999999997,95.438,540.786,538.759,0.0
51897.0,STARLINK-3598,PAYLOAD,2022-09-02 14:00:01,15.08850276,0.0001506999999999,53.2196,3.6946,72.2037,200.8294,-0.0012536,-0.00020189,0.0,0 STARLINK-3598,1 51897U 22022AX  22245.58334491 -.00020189  00000-0 -12536-2 0  9991,2 51897  53.2196   3.6946 0001507  72.2037 200.8294 15.08850276  1301,6917.849,95.437,540.756,538.6709999999998,0.0
51897.0,STARLINK-3598,PAYLOAD,2022-09-02 22:00:01,15.08853821,0.0001405,53.2196,2.1982,67.6779,217.0141,-0.0031322,-0.00049811,0.0,0 STARLINK-3598,1 51897U 22022AX  22245.91668981 -.00049811  00000-0 -31322-2 0  9999,2 51897  53.2196   2.1982 0001405  67.6779 217.0141 15.08853821  1303,6917.8380000000025,95.437,540.675,538.731,0.0
51897.0,STARLINK-3598,PAYLOAD,2022-09-03 00:00:00,15.08845165,0.0001369,53.2197,1.8236,69.9278,307.6036,-0.0024884,-0.00039678,0.0,0 STARLINK-3598,1 51897U 22022AX  22246.00001157 -.00039678  00000-0 -24884-2 0  9991,2 51897  53.2197   1.8236 0001369  69.9278 307.6036 15.08845165 29457,6917.865,95.437,540.677,538.783,0.0
51897.0,STARLINK-3598,PAYLOAD,2022-09-03 14:00:01,15.08838602,0.0001436,53.2199,359.2058,68.2014,239.6028,-0.00050654,-8.340000000000001e-05,0.0,0 STARLINK-3598,1 51897U 22022AX  22246.58334491 -.00008340  00000-0 -50654-3 0  9991,2 51897  53.2199 359.2058 0001436  68.2014 239.6028 15.08838602 29538,6917.885,95.438,540.743,538.756,0.0
51897.0,STARLINK-3598,PAYLOAD,2022-09-03 22:00:00,15.08861946,0.0001385,53.2199,357.7091,65.5585,253.8343,-0.0012345,-0.00019893,0.0,0 STARLINK-3598,1 51897U 22022AX  22246.91667824 -.00019893  00000-0 -12345-2 0  9996,2 51897  53.2199 357.7091 0001385  65.5585 253.8343 15.08861946  1304,6917.813,95.436,540.636,538.72,0.0
